2023-069A               
1 56731U 23069A   23171.46991676  .00007093  00000+0  23912-3 0  9992
2 56731  41.0031 184.2121 0031344 347.8059  12.2000 15.30521615  4618
2023-069B               
1 56732U 23069B   23171.45793563  .00014993  00000+0  48338-3 0  9993
2 56732  41.0028 184.1183 0029347 348.0086  12.0033 15.31424440  4618
2023-069C               
1 56733U 23069C   23171.45775035  .00008231  00000+0  27117-3 0  9998
2 56733  41.0031 184.1175 0028841 348.0974  11.9162 15.31187249  4612
CZ-2C R/B               
1 56734U 23069D   23171.47207703  .00023518  00000+0  42551-3 0  9997
2 56734  41.1959 180.3069 0054119 255.6808 103.8009 15.47467611  4666
CZ-2C DEB               
1 56735U 23069E   23171.35837702  .00057467  00000+0  37879-2 0  9999
2 56735  41.1406 195.5018 0206828 327.3828  31.4347 14.90805028  4487
CZ-2C DEB               
1 56736U 23069F   23171.44923294  .00097477  00000+0  36568-2 0  9991
2 56736  40.8522 187.5123 0114506  19.4297 341.0832 15.20175994  4587
CZ-2C DEB               
1 56737U 23069G   23171.11288836  .00109535  00000+0  36560-2 0  9993
2 56737  41.0941 188.5286 0108635  23.8501 336.7301 15.24382103  4500
2023-069H               
1 56738U 23069H   23171.45836248  .00053204  00000+0  34309-2 0  9997
2 56738  40.9025 194.4817 0199766 328.0377  30.8440 14.92519349  4508
PROGRESS-MS 23          
1 56740U 23071A   23170.50332658  .00013700  00000+0  24603-3 0  9998
2 56740  51.6410 317.0466 0004517  59.2520 300.8913 15.50178988402156
2023-072A               
1 56743U 23072A   23171.52684607  .00004579  00000+0  30731-3 0  9992
2 56743  97.5425 358.3294 0008089 200.1381 159.9529 15.07286719  3934
SNIPE 4                 
1 56744U 23072B   23171.52565403  .00006087  00000+0  40593-3 0  9998
2 56744  97.5510 358.3604 0008090 201.0632 159.0264 15.07397197  3936
SNIPE 2                 
1 56745U 23072C   23171.52336231  .00006206  00000+0  41221-3 0  9996
2 56745  97.5520 358.3661 0008310 204.4594 155.6241 15.07532914  3935
2023-072D               
1 56746U 23072D   23171.45429227  .00006969  00000+0  46017-3 0  9991
2 56746  97.5521 358.3044 0008554 208.2164 151.8601 15.07708529  3921
2023-072E               
1 56747U 23072E   23171.51825231  .00006390  00000+0  42087-3 0  9995
2 56747  97.5523 358.3729 0008994 210.7535 149.3167 15.07829561  3932
2023-072F               
1 56748U 23072F   23171.51764025  .00005162  00000+0  34073-3 0  9991
2 56748  97.5317 358.3055 0009236 211.4593 148.6084 15.07841662  3934
2023-072G               
1 56749U 23072G   23171.51501441  .00006048  00000+0  39650-3 0  9993
2 56749  97.5325 358.3113 0009581 214.3909 145.6700 15.08016778  3930
2023-072H               
1 56750U 23072H   23171.52982951  .00004657  00000+0  25349-3 0  9999
2 56750  97.5373 358.6092 0017398 187.6373 172.4596 15.14809990  3952
AXIOM-2 DEB             
1 56751U 23070B   23171.49325005  .00165530  00000+0  92316-3 0  9991
2 56751  51.4309 308.5509 0057022 238.3174 121.2255 15.76017210  3227
ELECTRON KICK STAGE R/B 
1 56752U 23073A   23171.35306816  .00010449  00000+0  67735-3 0  9994
2 56752  32.7373  48.0739 0011493  93.5300 266.6684 15.07046394  3809
TROPICS-03              
1 56753U 23073B   23171.02549933  .00008859  00000+0  57858-3 0  9995
2 56753  32.7376  50.1960 0010166 102.3571 257.8237 15.06768261  3739
TROPICS-07              
1 56754U 23073C   23171.33817354  .00009613  00000+0  60807-3 0  9992
2 56754  32.7378  47.9539 0014580  96.8028 263.4301 15.07900899  3805
ELECTRON R/B            
1 56755U 23073D   23171.39879783  .00015518  00000+0  97029-3 0  9990
2 56755  35.4652  53.3945 0023586  42.7370 317.5178 15.08447003  3817
COSMOS 2569             
1 56756U 23074A   23171.52003118  .00004771  00000+0  23255-3 0  9997
2 56756  97.4373   5.9168 0001503  89.9153 270.2254 15.18802959  3741
ARABSAT-7B (BADR-8)     
1 56757U 23075A   23170.96622053 -.00000236  00000+0  00000+0 0  9993
2 56757  17.3977 144.1118 7632183 184.9807 156.2196  0.99464882   261
FALCON 9 R/B            
1 56758U 23075B   23170.80573950 -.00000126  00000+0  59159-3 0  9999
2 56758  27.8739 144.0765 8174952 186.5469 143.2600  1.20343644   273
IRNSS-1J (NVS-01)       
1 56759U 23076A   23171.50102556 -.00000328  00000+0  00000+0 0  9990
2 56759   4.9303 273.5168 0004466 357.2806 307.5339  1.00269493   156
GSLV R/B                
1 56760U 23076B   23171.50135351  .00169181  70485-6  50229-2 0  9995
2 56760  19.1699 261.5505 7490430 192.7575 123.9655  2.06269027   463
SHENZHOU-16 (SZ-16)     
1 56761U 23077A   23170.40630268  .00000091  00000+0  52915-5 0  9992
2 56761  41.4743 142.3903 0004822  77.6407 282.4971 15.59284577122189
STARLINK-6197           
1 56767U 23078A   23171.50363359  .00037282  00000+0  31041-3 0  9992
2 56767  70.0002 356.4453 0003848 270.9500  89.1255 15.69925010  3223
STARLINK-6198           
1 56768U 23078B   23171.58334491 -.00087723  00000+0 -73393-3 0  9999
2 56768  69.9999 356.2205 0003776 271.0081 182.4181 15.69970168  1301
STARLINK-5978           
1 56769U 23078C   23171.43970504  .00046657  00000+0  38748-3 0  9999
2 56769  69.9998 356.6254 0004044 272.1417  87.9315 15.69930618  3219
STARLINK-6342           
1 56770U 23078D   23171.50352724  .00038703  00000+0  32211-3 0  9999
2 56770  69.9997 356.4470 0003991 273.8417  86.2322 15.69925050  3221
STARLINK-6339           
1 56771U 23078E   23171.58334491 -.00077557  00000+0 -64809-3 0  9999
2 56771  70.0005 356.2173 0003702 269.7952 184.2305 15.69963249  1300
STARLINK-6275           
1 56772U 23078F   23171.50331576  .00036903  00000+0  30725-3 0  9991
2 56772  69.9998 356.4458 0004155 272.7416  87.3304 15.69926346  3221
STARLINK-6296           
1 56773U 23078G   23171.58334491 -.00078176  00000+0 -65330-3 0  9999
2 56773  70.0006 356.2162 0003758 272.0880 182.5333 15.69963846  1304
STARLINK-6190           
1 56774U 23078H   23171.58334491 -.00096602  00000+0 -80887-3 0  9998
2 56774  70.0002 356.2196 0003963 267.6217 185.2035 15.69980348  1305
STARLINK-6292           
1 56775U 23078J   23171.58334491 -.00082524  00000+0 -69007-3 0  9998
2 56775  70.0005 356.2130 0003753 271.0038 186.5957 15.69964497  1308
STARLINK-6274           
1 56776U 23078K   23171.58334491 -.00074349  00000+0 -62086-3 0  9995
2 56776  70.0001 356.2170 0003729 267.3919 187.8149 15.69967418  1301
STARLINK-5582           
1 56777U 23078L   23171.58334491 -.00079109  00000+0 -66133-3 0  9992
2 56777  70.0006 356.2103 0003719 270.5856 188.8016 15.69959044  1308
STARLINK-6304           
1 56778U 23078M   23171.58334491 -.00035066  00000+0 -29081-3 0  9998
2 56778  70.0000 356.2174 0003699 274.4215 181.3875 15.69943938  1306
STARLINK-6231           
1 56779U 23078N   23171.58334491 -.00091072  00000+0 -76221-3 0  9996
2 56779  70.0007 356.2065 0003693 267.3350 195.0154 15.69974159  1309
STARLINK-5963           
1 56780U 23078P   23171.58334491 -.00032915  00000+0 -27286-3 0  9996
2 56780  70.0005 356.2104 0003714 270.1987 189.7868 15.69937759  1302
STARLINK-5989           
1 56781U 23078Q   23171.58334491 -.00076762  00000+0 -64117-3 0  9999
2 56781  70.0010 356.2027 0003615 265.3237 199.4137 15.69971233  1309
STARLINK-6352           
1 56782U 23078R   23171.58334491 -.00027950  00000+0 -23131-3 0  9996
2 56782  70.0002 356.2157 0003891 270.4441 185.9700 15.69935721  1303
STARLINK-6357           
1 56783U 23078S   23171.58334491 -.00056540  00000+0 -47108-3 0  9994
2 56783  70.0006 356.2121 0003727 267.0712 191.1276 15.69949285  1307
STARLINK-6354           
1 56784U 23078T   23171.58334491 -.00093928  00000+0 -78654-3 0  9996
2 56784  70.0001 356.2153 0003589 275.5451 181.4567 15.69971703  1303
STARLINK-5931           
1 56785U 23078U   23171.58334491 -.00067042  00000+0 -55961-3 0  9991
2 56785  70.0005 356.2061 0003681 266.4510 197.1027 15.69949260  1302
STARLINK-6341           
1 56786U 23078V   23171.58334491 -.00064298  00000+0 -53628-3 0  9990
2 56786  70.0000 356.2136 0003732 273.8448 184.9422 15.69956915  1308
STARLINK-6326           
1 56787U 23078W   23171.58334491 -.00081201  00000+0 -67877-3 0  9995
2 56787  70.0007 356.2072 0003768 267.8315 193.9304 15.69968129  1309
STARLINK-6336           
1 56788U 23078X   23171.58334491 -.00043143  00000+0 -35854-3 0  9999
2 56788  70.0002 356.2105 0003853 273.2333 187.3455 15.69943346  1306
STARLINK-6325           
1 56789U 23078Y   23171.58334491 -.00067046  00000+0 -55941-3 0  9997
2 56789  70.0006 356.2012 0003762 269.2988 198.4215 15.69959074  1300
STARLINK-6345           
1 56790U 23078Z   23171.58334491 -.00013907  00000+0 -11404-3 0  9992
2 56790  70.0003 356.2093 0003739 270.1828 190.9957 15.69929349  1308
STARLINK-5977           
1 56791U 23078AA  23171.58334491 -.00066913  00000+0 -55842-3 0  9992
2 56791  70.0010 356.2015 0003655 266.4383 199.5035 15.69953787  1307
STARLINK-6046           
1 56792U 23078AB  23171.58334491 -.00089891  00000+0 -75242-3 0  9999
2 56792  70.0007 356.2053 0003742 272.8770 190.0765 15.69966877  1304
STARLINK-6052           
1 56793U 23078AC  23171.58334491 -.00086720  00000+0 -72540-3 0  9996
2 56793  70.0007 356.1963 0003413 270.1571 200.5320 15.69973454  1302
STARLINK-6060           
1 56794U 23078AD  23171.58334491 -.00060668  00000+0 -50578-3 0  9997
2 56794  70.0001 356.2052 0003606 269.7305 195.6141 15.69953361  1300
STARLINK-6061           
1 56795U 23078AE  23171.58334491 -.00080299  00000+0 -67114-3 0  9994
2 56795  70.0008 356.1917 0003705 271.6477 202.6208 15.69968452  1309
STARLINK-6049           
1 56796U 23078AF  23171.58334491 -.00050667  00000+0 -42174-3 0  9990
2 56796  70.0008 356.2044 0003590 265.9338 198.2217 15.69945827  1307
STARLINK-6058           
1 56797U 23078AG  23171.58334491 -.00087314  00000+0 -73044-3 0  9990
2 56797  70.0011 356.1964 0003505 266.0702 203.4296 15.69972654  1309
